{
    "links": {
        "self": "http://www.neowsapp.com/rest/v1/neo/3791248?api_key=iIulBulltgU6a56xZRHN4H3l9WmuAYTsLGpBGhQ2"
    },
    "id": "3791248",
    "neo_reference_id": "3791248",
    "name": "(2017 XH1)",
    "designation": "2017 XH1",
    "nasa_jpl_url": "http://ssd.jpl.nasa.gov/sbdb.cgi?sstr=3791248",
    "absolute_magnitude_h": 24.2,
    "estimated_diameter": {
        "kilometers": {
            "estimated_diameter_min": 0.0384197891,
            "estimated_diameter_max": 0.0859092601
        },
        "meters": {
            "estimated_diameter_min": 38.4197891064,
            "estimated_diameter_max": 85.9092601232
        },
        "miles": {
            "estimated_diameter_min": 0.0238729428,
            "estimated_diameter_max": 0.0533815229
        },
        "feet": {
            "estimated_diameter_min": 126.0491808919,
            "estimated_diameter_max": 281.8545369825
        }
    },
    "is_potentially_hazardous_asteroid": false,
    "close_approach_data": [
        {
            "close_approach_date": "2012-12-05",
            "close_approach_date_full": "2012-Dec-05 06:21",
            "epoch_date_close_approach": 1354688460000,
            "relative_velocity": {
                "kilometers_per_second": "15.061574114",
                "kilometers_per_hour": "54221.6668105346",
                "miles_per_hour": "33691.2351356903"
            },
            "miss_distance": {
                "astronomical": "0.4535663318",
                "lunar": "176.4373030702",
                "kilometers": "67852557.140993266",
                "miles": "42161623.9469324308"
            },
            "orbiting_body": "Earth"
        },
        {
            "close_approach_date": "2017-12-06",
            "close_approach_date_full": "2017-Dec-06 00:01",
            "epoch_date_close_approach": 1512518460000,
            "relative_velocity": {
                "kilometers_per_second": "9.1213397371",
                "kilometers_per_hour": "32836.8230536278",
                "miles_per_hour": "20403.5248579611"
            },
            "miss_distance": {
                "astronomical": "0.1212315674",
                "lunar": "47.1590797186",
                "kilometers": "18135984.259801438",
                "miles": "11269178.0603103244"
            },
            "orbiting_body": "Earth"
        }
    ],
    "orbital_data": {
        "orbit_id": "4",
        "orbit_determination_date": "2017-12-23 06:23:25",
        "first_observation_date": "2017-12-08",
        "last_observation_date": "2017-12-23",
        "data_arc_in_days": 15,
        "observations_used": 41,
        "orbit_uncertainty": "8",
        "minimum_orbit_intersection": ".121224",
        "jupiter_tisserand_invariant": "4.704",
        "epoch_osculation": "2458097.5",
        "eccentricity": ".2140599509036847",
        "semi_major_axis": "1.392642250432465",
        "inclination": "16.6879533411764",
        "ascending_node_longitude": "78.7329862428349",
        "orbital_period": "600.2853950283376",
        "perihelion_distance": "1.094533318678495",
        "perihelion_argument": "337.3462450139489",
        "aphelion_distance": "1.690751182186436",
        "perihelion_time": "2458074.978627317853",
        "mean_anomaly": "13.50639917732828",
        "mean_motion": ".5997147406576592",
        "equinox": "J2000",
        "orbit_class": {
            "orbit_class_type": "AMO",
            "orbit_class_description": "Near-Earth asteroid orbits similar to that of 1221 Amor",
            "orbit_class_range": "1.017 AU < q (perihelion) < 1.3 AU"
        }
    },
    "is_sentry_object": false
}